H-2A R/B                
1 27601U 02056E   17073.22251141  .00000059  00000-0  36859-4 0  9994
2 27601  98.3861 144.2588 0071606 216.2277 209.4181 14.31768007744223
CZ-4B R/B               
1 28059U 03049C   17072.89760832 -.00000004  00000-0  11046-4 0  9991
2 28059  98.5755 316.8675 0050184 176.6450 241.6720 14.52479107709859
CZ-2C R/B               
1 28222U 04012C   17072.89975216  .00000766  00000-0  51043-4 0  9993
2 28222  97.5139  31.2640 0049313 150.8006 272.0983 15.09076706706249
SL-16 R/B               
1 28353U 04021B   17072.94212229  .00000004  00000-0  26879-4 0  9996
2 28353  70.9990 278.2107 0006149 323.2856  36.7844 14.14196240658680
CZ-2C R/B               
1 28480U 04046B   17072.87112424  .00000017  00000-0  21520-4 0  9994
2 28480  98.1918 175.2260 0142848 145.4993 324.7411 14.25629596640657
ARIANE 5 R/B            
1 28499U 04049H   17072.78793604  .00000075  00000-0  16666-4 0  9991
2 28499  98.0833 155.2375 0092984 162.8944 309.7290 14.79791862659889
CZ-2D R/B               
1 28738U 05024B   17072.71175562  .00000610  00000-0  40321-4 0  9991
2 28738  97.5091 111.4083 0011577 340.6807  19.3983 15.11016690641394
SUZAKU (ASTRO-EII)      
1 28773U 05025A   17072.70354137  .00001099  00000-0  52051-4 0  9992
2 28773  31.3822 195.5233 0004683 108.3597 251.7559 15.15575620642856
ALOS (DAICHI)           
1 28931U 06002A   17072.95969458  .00000059  00000-0  20266-4 0  9997
2 28931  97.8541 105.0323 0000586 105.6895 254.4372 14.62323050593545
H-2A R/B                
1 28932U 06002B   17073.23260943  .00000252  00000-0  30066-4 0  9997
2 28932  98.2074 352.3049 0088788 262.6260 259.0605 14.91274059603654
AKARI (ASTRO-F)         
1 28939U 06005A   17072.91425165  .00003612  00000-0  11391-3 0  9992
2 28939  98.2560 263.8111 0108941 156.1284 204.5060 15.28024946598544
RESURS-DK 1             
1 29228U 06021A   17073.48242351  .00000090  00000-0  14251-4 0  9995
2 29228  69.9371 339.0194 0002936 168.4426 191.6803 15.02108477593886
GENESIS 1               
1 29252U 06029A   17072.82799894  .00000307  00000-0  25861-4 0  9996
2 29252  64.5036 236.9135 0007481 280.0542 182.4595 15.16618398587288
CZ-4B R/B               
1 29507U 06046C   17073.01495613  .00000144  00000-0  16478-4 0  9995
2 29507  97.7868  80.4498 0040985 204.4819 155.4459 14.99992621566773
CZ-2C R/B               
1 31114U 07010B   17072.95246804  .00000013  00000-0  25251-4 0  9996
2 31114  98.4066 340.3277 0060594 131.3252 229.3162 14.19234865513997
COSMO-SKYMED 1          
1 31598U 07023A   17073.52394955 -.00000264  00000-0 -26561-4 0  9996
2 31598  97.8779 258.6685 0001298  92.3405 267.7981 14.82159555528424
GENESIS 2               
1 31789U 07028A   17072.94063653  .00000287  00000-0  25356-4 0  9990
2 31789  64.5032 274.1577 0039067 233.8712 125.8792 15.15891961534477
COSMOS 2428             
1 31792U 07029A   17073.50465817 -.00000081  00000-0 -17957-4 0  9998
2 31792  70.9115 250.9093 0005054  54.1073 306.0516 14.12254255500703
SL-16 R/B               
1 31793U 07029B   17072.90026506 -.00000015  00000-0  17007-4 0  9992
2 31793  70.9752 229.3110 0002753 273.6333 196.6878 14.14382190501203
KORONAS-FOTON           
1 33504U 09003A   17073.17656708  .00000898  00000-0  46525-4 0  9996
2 33504  82.4446 327.3919 0021112  79.1463 281.2143 15.14719328447092
TIANGONG 1              
1 37820U 11053A   17073.43650568  .00020953  00000-0  14374-3 0  9996
2 37820  42.7604  58.2838 0016431 128.6063   6.5432 15.74100534313018
CZ-3B R/B               
1 38253U 12018D   17073.45360857  .00871530  30102-5  49887-3 0  9993
2 38253  54.8981  96.4631 2315007 117.8325 267.5930 11.09524333116698
H-2A R/B                
1 38341U 12025E   17072.86957270  .00000156  00000-0  25874-4 0  9992
2 38341  98.4423 144.5319 0057255 104.7719 255.9847 14.83522161260743
CUSAT 2 & FALCON 9 R/B  
1 39271U 13055G   17072.69204732  .00005111  00000-0  13092-3 0  9992
2 39271  80.9654  98.0505 0640224 124.4603 241.8798 14.35702973178917
ALOS-2                  
1 39766U 14029A   17073.09084763 -.00000517  00000-0 -62361-4 0  9999
2 39766  97.9189 171.7873 0001609  91.0704 269.0755 14.79466096151549
ASTRO-H (HITOMI)        
1 41337U 16012A   17073.25522932  .00000282  00000-0  16132-4 0  9995
2 41337  31.0069   0.3375 0012517 183.7264 176.3279 14.98258328 58675
